STARLINK-30496          
1 57919U 23147G   26076.83441936  .00003628  00000+0  14483-3 0  9998
2 57919  43.0013 279.2069 0001308 268.8728  91.1974 15.26749178137879
STARLINK-30485          
1 57920U 23147H   26076.83131845  .00014581  00000+0  55203-3 0  9990
2 57920  43.0005 279.1851 0001049 276.5131  83.5601 15.26748300137874
STARLINK-30492          
1 57921U 23147J   26076.84478404  .00056953  00000+0  20867-2 0  9993
2 57921  42.9963 279.2792 0002203 270.0155  90.0444 15.27207955137841
STARLINK-30440          
1 57923U 23147L   26076.85695005  .00006504  00000+0  25181-3 0  9996
2 57923  42.9975 279.3692 0001372 282.2651  77.8047 15.26755368137878
STARLINK-30487          
1 57924U 23147M   26076.83335647  .00018428  00000+0  12268-2 0  9997
2 57924  42.9989 281.5575 0001800 308.6095 120.4008 15.06824436  5776
STARLINK-30452          
1 57925U 23147N   26076.85891208  .00002266  00000+0  94140-4 0  9994
2 57925  43.0029 279.3816 0001049 269.1097  90.9634 15.26737888137841
STARLINK-30468          
1 57926U 23147P   26076.83335647  .00064128  00000+0  36941-2 0  9991
2 57926  42.9989 281.6417 0002445 291.0845 116.7765 15.11566782  5612
STARLINK-30448          
1 57928U 23147R   26076.55868480  .00257003  00000+0  16928-1 0  9996
2 57928  42.9966 283.1285 0000955   7.3076 352.7781 15.05564568137773
STARLINK-30476          
1 57930U 23147T   26076.45122315  .00067957  00000+0  17605-2 0  9999
2 57930  42.9933 227.3111 0019836 292.9319  66.9443 15.37966090138410
STARLINK-30488          
1 57931U 23147U   26075.62905895 -.00002052  00000+0 -13697-3 0  9995
2 57931  43.0031 288.1911 0000914 270.4252  89.6485 15.02514542137666
STARLINK-30471          
1 57932U 23147V   26076.85227359 -.00006018  00000+0 -21488-3 0  9997
2 57932  42.9955 278.4783 0001372 278.4228  81.6468 15.26736593137851
STARLINK-30461          
1 57933U 23147W   26076.86706519  .00007800  00000+0  29997-3 0  9990
2 57933  42.9987 278.5919 0001150 268.9170  91.1549 15.26759598137859
STARLINK-30712          
1 57935U 23148A   26076.46197620  .00002077  00000+0  82253-4 0  9992
2 57935  53.1618 348.0984 0001322  88.9775 271.1377 15.30189763139614
STARLINK-30716          
1 57936U 23148B   26076.88339043  .00001638  00000+0  67401-4 0  9996
2 57936  53.1626 346.3722 0001125  89.8977 270.2152 15.30205141139676
STARLINK-30400          
1 57937U 23148C   26076.07324915  .00000800  00000+0  39161-4 0  9992
2 57937  53.1617 349.8973 0001119  91.0667 269.0462 15.30181369139559
STARLINK-30710          
1 57938U 23148D   26076.45258138  .00002123  00000+0  83852-4 0  9994
2 57938  53.1625 338.1631 0001597  87.9719 272.1465 15.30175730139747
