[{"OBJECT_NAME":"STARLINK-30496","OBJECT_ID":"2023-147G","EPOCH":"2026-03-17T20:01:33.832704","MEAN_MOTION":15.26749178,"ECCENTRICITY":0.0001308,"INCLINATION":43.0013,"RA_OF_ASC_NODE":279.2069,"ARG_OF_PERICENTER":268.8728,"MEAN_ANOMALY":91.1974,"EPHEMERIS_TYPE":0,"CLASSIFICATION_TYPE":"U","NORAD_CAT_ID":57919,"ELEMENT_SET_NO":999,"REV_AT_EPOCH":13787,"BSTAR":0.00014483,"MEAN_MOTION_DOT":3.628e-5,"MEAN_MOTION_DDOT":0},{"OBJECT_NAME":"STARLINK-30485","OBJECT_ID":"2023-147H","EPOCH":"2026-03-17T19:57:05.914080","MEAN_MOTION":15.267483,"ECCENTRICITY":0.0001049,"INCLINATION":43.0005,"RA_OF_ASC_NODE":279.1851,"ARG_OF_PERICENTER":276.5131,"MEAN_ANOMALY":83.5601,"EPHEMERIS_TYPE":0,"CLASSIFICATION_TYPE":"U","NORAD_CAT_ID":57920,"ELEMENT_SET_NO":999,"REV_AT_EPOCH":13787,"BSTAR":0.00055203,"MEAN_MOTION_DOT":0.00014581,"MEAN_MOTION_DDOT":0},{"OBJECT_NAME":"STARLINK-30492","OBJECT_ID":"2023-147J","EPOCH":"2026-03-17T20:16:29.341056","MEAN_MOTION":15.27207955,"ECCENTRICITY":0.0002203,"INCLINATION":42.9963,"RA_OF_ASC_NODE":279.2792,"ARG_OF_PERICENTER":270.0155,"MEAN_ANOMALY":90.0444,"EPHEMERIS_TYPE":0,"CLASSIFICATION_TYPE":"U","NORAD_CAT_ID":57921,"ELEMENT_SET_NO":999,"REV_AT_EPOCH":13784,"BSTAR":0.0020867,"MEAN_MOTION_DOT":0.00056953,"MEAN_MOTION_DDOT":0},{"OBJECT_NAME":"STARLINK-30440","OBJECT_ID":"2023-147L","EPOCH":"2026-03-17T20:34:00.484320","MEAN_MOTION":15.26755368,"ECCENTRICITY":0.0001372,"INCLINATION":42.9975,"RA_OF_ASC_NODE":279.3692,"ARG_OF_PERICENTER":282.2651,"MEAN_ANOMALY":77.8047,"EPHEMERIS_TYPE":0,"CLASSIFICATION_TYPE":"U","NORAD_CAT_ID":57923,"ELEMENT_SET_NO":999,"REV_AT_EPOCH":13787,"BSTAR":0.00025181,"MEAN_MOTION_DOT":6.504e-5,"MEAN_MOTION_DDOT":0},{"OBJECT_NAME":"STARLINK-30487","OBJECT_ID":"2023-147M","EPOCH":"2026-03-17T20:00:01.999008","MEAN_MOTION":15.06824436,"ECCENTRICITY":0.00018,"INCLINATION":42.9989,"RA_OF_ASC_NODE":281.5575,"ARG_OF_PERICENTER":308.6095,"MEAN_ANOMALY":120.4008,"EPHEMERIS_TYPE":0,"CLASSIFICATION_TYPE":"U","NORAD_CAT_ID":57924,"ELEMENT_SET_NO":999,"REV_AT_EPOCH":577,"BSTAR":0.0012268,"MEAN_MOTION_DOT":0.00018428,"MEAN_MOTION_DDOT":0},{"OBJECT_NAME":"STARLINK-30452","OBJECT_ID":"2023-147N","EPOCH":"2026-03-17T20:36:50.003712","MEAN_MOTION":15.26737888,"ECCENTRICITY":0.0001049,"INCLINATION":43.0029,"RA_OF_ASC_NODE":279.3816,"ARG_OF_PERICENTER":269.1097,"MEAN_ANOMALY":90.9634,"EPHEMERIS_TYPE":0,"CLASSIFICATION_TYPE":"U","NORAD_CAT_ID":57925,"ELEMENT_SET_NO":999,"REV_AT_EPOCH":13784,"BSTAR":9.414e-5,"MEAN_MOTION_DOT":2.266e-5,"MEAN_MOTION_DDOT":0},{"OBJECT_NAME":"STARLINK-30468","OBJECT_ID":"2023-147P","EPOCH":"2026-03-17T20:00:01.999008","MEAN_MOTION":15.11566782,"ECCENTRICITY":0.0002445,"INCLINATION":42.9989,"RA_OF_ASC_NODE":281.6417,"ARG_OF_PERICENTER":291.0845,"MEAN_ANOMALY":116.7765,"EPHEMERIS_TYPE":0,"CLASSIFICATION_TYPE":"U","NORAD_CAT_ID":57926,"ELEMENT_SET_NO":999,"REV_AT_EPOCH":561,"BSTAR":0.0036941,"MEAN_MOTION_DOT":0.00064128,"MEAN_MOTION_DDOT":0},{"OBJECT_NAME":"STARLINK-30448","OBJECT_ID":"2023-147R","EPOCH":"2026-03-17T13:24:30.366720","MEAN_MOTION":15.05564568,"ECCENTRICITY":9.552e-5,"INCLINATION":42.9966,"RA_OF_ASC_NODE":283.1285,"ARG_OF_PERICENTER":7.3076,"MEAN_ANOMALY":352.7781,"EPHEMERIS_TYPE":0,"CLASSIFICATION_TYPE":"U","NORAD_CAT_ID":57928,"ELEMENT_SET_NO":999,"REV_AT_EPOCH":13777,"BSTAR":0.01692826,"MEAN_MOTION_DOT":0.00257003,"MEAN_MOTION_DDOT":0},{"OBJECT_NAME":"STARLINK-30476","OBJECT_ID":"2023-147T","EPOCH":"2026-03-17T10:49:45.680160","MEAN_MOTION":15.3796609,"ECCENTRICITY":0.00198367,"INCLINATION":42.9933,"RA_OF_ASC_NODE":227.3111,"ARG_OF_PERICENTER":292.9319,"MEAN_ANOMALY":66.9443,"EPHEMERIS_TYPE":0,"CLASSIFICATION_TYPE":"U","NORAD_CAT_ID":57930,"ELEMENT_SET_NO":999,"REV_AT_EPOCH":13841,"BSTAR":0.00176046,"MEAN_MOTION_DOT":0.00067957,"MEAN_MOTION_DDOT":0},{"OBJECT_NAME":"STARLINK-30488","OBJECT_ID":"2023-147U","EPOCH":"2026-03-16T15:05:50.693280","MEAN_MOTION":15.02514542,"ECCENTRICITY":9.141e-5,"INCLINATION":43.0031,"RA_OF_ASC_NODE":288.1911,"ARG_OF_PERICENTER":270.4252,"MEAN_ANOMALY":89.6485,"EPHEMERIS_TYPE":0,"CLASSIFICATION_TYPE":"U","NORAD_CAT_ID":57931,"ELEMENT_SET_NO":999,"REV_AT_EPOCH":13766,"BSTAR":-0.00013696559,"MEAN_MOTION_DOT":-2.052e-5,"MEAN_MOTION_DDOT":0},{"OBJECT_NAME":"STARLINK-30471","OBJECT_ID":"2023-147V","EPOCH":"2026-03-17T20:27:16.438176","MEAN_MOTION":15.26736593,"ECCENTRICITY":0.0001372,"INCLINATION":42.9955,"RA_OF_ASC_NODE":278.4783,"ARG_OF_PERICENTER":278.4228,"MEAN_ANOMALY":81.6468,"EPHEMERIS_TYPE":0,"CLASSIFICATION_TYPE":"U","NORAD_CAT_ID":57932,"ELEMENT_SET_NO":999,"REV_AT_EPOCH":13785,"BSTAR":-0.00021488,"MEAN_MOTION_DOT":-6.018e-5,"MEAN_MOTION_DDOT":0},{"OBJECT_NAME":"STARLINK-30461","OBJECT_ID":"2023-147W","EPOCH":"2026-03-17T20:48:34.432416","MEAN_MOTION":15.26759598,"ECCENTRICITY":0.000115,"INCLINATION":42.9987,"RA_OF_ASC_NODE":278.5919,"ARG_OF_PERICENTER":268.917,"MEAN_ANOMALY":91.1549,"EPHEMERIS_TYPE":0,"CLASSIFICATION_TYPE":"U","NORAD_CAT_ID":57933,"ELEMENT_SET_NO":999,"REV_AT_EPOCH":13785,"BSTAR":0.00029997,"MEAN_MOTION_DOT":7.8e-5,"MEAN_MOTION_DDOT":0},{"OBJECT_NAME":"STARLINK-30712","OBJECT_ID":"2023-148A","EPOCH":"2026-03-17T11:05:14.743680","MEAN_MOTION":15.30189763,"ECCENTRICITY":0.00013226,"INCLINATION":53.1618,"RA_OF_ASC_NODE":348.0984,"ARG_OF_PERICENTER":88.9775,"MEAN_ANOMALY":271.1377,"EPHEMERIS_TYPE":0,"CLASSIFICATION_TYPE":"U","NORAD_CAT_ID":57935,"ELEMENT_SET_NO":999,"REV_AT_EPOCH":13961,"BSTAR":8.2253114e-5,"MEAN_MOTION_DOT":2.077e-5,"MEAN_MOTION_DDOT":0},{"OBJECT_NAME":"STARLINK-30716","OBJECT_ID":"2023-148B","EPOCH":"2026-03-17T21:12:04.933152","MEAN_MOTION":15.30205141,"ECCENTRICITY":0.0001125,"INCLINATION":53.1626,"RA_OF_ASC_NODE":346.3722,"ARG_OF_PERICENTER":89.8977,"MEAN_ANOMALY":270.2152,"EPHEMERIS_TYPE":0,"CLASSIFICATION_TYPE":"U","NORAD_CAT_ID":57936,"ELEMENT_SET_NO":999,"REV_AT_EPOCH":13967,"BSTAR":6.7401e-5,"MEAN_MOTION_DOT":1.638e-5,"MEAN_MOTION_DDOT":0},{"OBJECT_NAME":"STARLINK-30400","OBJECT_ID":"2023-148C","EPOCH":"2026-03-17T01:45:28.726560","MEAN_MOTION":15.30181369,"ECCENTRICITY":0.00011191,"INCLINATION":53.1617,"RA_OF_ASC_NODE":349.8973,"ARG_OF_PERICENTER":91.0667,"MEAN_ANOMALY":269.0462,"EPHEMERIS_TYPE":0,"CLASSIFICATION_TYPE":"U","NORAD_CAT_ID":57937,"ELEMENT_SET_NO":999,"REV_AT_EPOCH":13955,"BSTAR":3.9161199e-5,"MEAN_MOTION_DOT":8.0e-6,"MEAN_MOTION_DDOT":0},{"OBJECT_NAME":"STARLINK-30710","OBJECT_ID":"2023-148D","EPOCH":"2026-03-17T10:51:43.031232","MEAN_MOTION":15.3017573,"ECCENTRICITY":0.00015979,"INCLINATION":53.1625,"RA_OF_ASC_NODE":338.1631,"ARG_OF_PERICENTER":87.9719,"MEAN_ANOMALY":272.1465,"EPHEMERIS_TYPE":0,"CLASSIFICATION_TYPE":"U","NORAD_CAT_ID":57938,"ELEMENT_SET_NO":999,"REV_AT_EPOCH":13974,"BSTAR":8.3852426e-5,"MEAN_MOTION_DOT":2.123e-5,"MEAN_MOTION_DDOT":0}]
